MOZHAYETS 4 (RS-22)     
1 27939U 03042A   24366.94251352  .00004876  00000+0  79312-3 0  9990
2 27939  98.3083 166.7797 0012096 150.7204   0.5026 14.71492364137211
CUBEBUG-2 (LO-74)       
1 39440U 13066AA  24366.58269841  .00014506  00000+0  15499-2 0  9995
2 39440  97.8344 306.7065 0065123 348.9371  11.0409 14.87312040597631
FOX-1A (AO-85)          
1 40967U 15058D   25001.07932343  .00014613  00000+0  12524-2 0  9994
2 40967  64.7767 127.2080 0182443 244.7605 113.4498 14.85715402 34357
UTMN 2 (RS27S)          
1 57203U 23091AP  24366.93432633  .00023797  00000+0  12132-2 0  9994
2 57203  97.5863  59.3925 0012189 140.2981 219.9147 15.16691279 83456
SIT-2086                
1 61764U 24199AF  25001.09275538  .00036969  00000+0  13779-2 0  9997
2 61764  97.3773 231.1750 0012653  43.5600 316.6636 15.27272105 52556
ALTAIR (RS65S)          
1 61779U 24199AW  24366.90425458  .00019091  00000+0  77111-3 0  9992
2 61779  97.3778 230.8202 0018636  45.8000 314.4765 15.24644622 55670
BRITE-AUSTRIA           
1 39091U 13009F   24366.58657747  .00000908  00000+0  32620-3 0  9997
2 39091  98.3817 188.7842 0010945  35.6986 324.4930 14.36131145620590
TIGRISAT                
1 40043U 14033AK  24366.88469199  .00006493  00000+0  81612-3 0  9999
2 40043  97.7120 161.6716 0053387  19.8727 340.4550 14.81404342566703
CANX-4                  
1 40055U 14034C   24366.64405022  .00004647  00000+0  62925-3 0  9997
2 40055  98.3760 209.6642 0012028 281.8535  78.1326 14.79437493565737
SNAP-3 JIMI             
1 40975U 15058M   24366.86240945  .00023812  00000+0  17478-2 0  9997
2 40975  64.7690  93.5714 0167748 246.9146 111.4209 14.92817304 34478
PROMETHEUS 2-1          
1 41854U 16067G   25001.01680203  .00063644  00000+0  20683-2 0  9993
2 41854  98.0906 197.7067 0009739  89.4729 270.7626 15.31633024445854
CORVUS BC4              
1 43767U 18099K   25001.08152974  .00012672  00000+0  87524-3 0  9994
2 43767  97.4856  54.4393 0010443  37.1114 323.0833 15.05843220332139
GRBALPHA                
1 47959U 21022AD  25001.13999468  .00101987  00000+0  20857-2 0  9997
2 47959  97.4392 267.4165 0010713 132.5483 227.6672 15.45697971207756
SITRO-AIS 31            
1 59054U 24039D   25001.09513603  .00106841  00000+0  18851-2 0  9990
2 59054  97.4107 330.3848 0008290 210.2593 149.8180 15.49969264 47000
SITRO-AIS 35            
1 59056U 24039F   25001.12864840  .00113841  00000+0  19905-2 0  9997
2 59056  97.4108 330.4996 0007933 209.9924 150.0874 15.50203349 47005
GLOBALSTAR M070         
1 32264U 07048B   25001.16089718 -.00000025  00000+0  44219-3 0  9994
2 32264  51.9754 277.3321 0000929  66.4382  78.2341 12.62309162793550
GLOBALSTAR M075         
1 37192U 10054E   24366.92138177 -.00000072  00000+0  17928-3 0  9990
2 37192  51.9967 330.8247 0000509  57.7760 337.6357 12.62270910654722
ORBCOMM FM112           
1 41184U 15081F   24366.88827015  .00003578  00000+0  81338-3 0  9991
2 41184  46.9978 265.1882 0001381 332.8113  27.2699 14.57659873481259
ORBCOMM FM113           
1 41185U 15081G   24366.86567707  .00003572  00000+0  81190-3 0  9999
2 41185  46.9997 265.6004 0001154   0.3053 359.7833 14.57660062481233
IRIDIUM 124             
1 42810U 17039H   24366.38355271  .00001270  00000+0  37161-3 0  9990
2 42810  86.4522 153.1056 0002127 104.8827 255.2610 14.43285735398268
IRIDIUM 139             
1 42963U 17061J   24366.78655647  .00000680  00000+0  23576-3 0  9997
2 42963  86.3970 247.7469 0001705  86.1762 273.9628 14.34220133378537
IRIDIUM 148             
1 43255U 18030G   24366.87776870  .00000373  00000+0  12609-3 0  9995
2 43255  86.3999 152.9840 0002044  98.7943 261.3485 14.34217652353874
